CCSDS_OMM_VERS = 2.0
CREATION_DATE  = 
ORIGINATOR     = 

OBJECT_NAME    = 2026-023D
OBJECT_ID      = 2026-023D
CENTER_NAME    = EARTH
REF_FRAME      = TEME
TIME_SYSTEM    = UTC
MEAN_ELEMENT_THEORY = SGP/SGP4

EPOCH          = 2026-02-15T20:05:42.415008
MEAN_MOTION    = 15.22373463
ECCENTRICITY   = .0019012
INCLINATION    = 96.6471
RA_OF_ASC_NODE = 122.3160
ARG_OF_PERICENTER = 203.3625
MEAN_ANOMALY   = 156.6751

EPHEMERIS_TYPE = 0
CLASSIFICATION_TYPE = U
NORAD_CAT_ID   = 67677
ELEMENT_SET_NO = 999
REV_AT_EPOCH   = 152
BSTAR          = .56562E-3
MEAN_MOTION_DOT = .13073E-3
MEAN_MOTION_DDOT = 0

CCSDS_OMM_VERS = 2.0
CREATION_DATE  = 
ORIGINATOR     = 

OBJECT_NAME    = 2026-023E
OBJECT_ID      = 2026-023E
CENTER_NAME    = EARTH
REF_FRAME      = TEME
TIME_SYSTEM    = UTC
MEAN_ELEMENT_THEORY = SGP/SGP4

EPOCH          = 2026-02-15T20:04:54.336000
MEAN_MOTION    = 15.22479233
ECCENTRICITY   = .0018854
INCLINATION    = 96.6365
RA_OF_ASC_NODE = 122.3187
ARG_OF_PERICENTER = 202.7412
MEAN_ANOMALY   = 157.2994

EPHEMERIS_TYPE = 0
CLASSIFICATION_TYPE = U
NORAD_CAT_ID   = 67678
ELEMENT_SET_NO = 999
REV_AT_EPOCH   = 152
BSTAR          = .6681E-3
MEAN_MOTION_DOT = .15504E-3
MEAN_MOTION_DDOT = 0

CCSDS_OMM_VERS = 2.0
CREATION_DATE  = 
ORIGINATOR     = 

OBJECT_NAME    = 2026-023F
OBJECT_ID      = 2026-023F
CENTER_NAME    = EARTH
REF_FRAME      = TEME
TIME_SYSTEM    = UTC
MEAN_ELEMENT_THEORY = SGP/SGP4

EPOCH          = 2026-02-15T20:03:34.211232
MEAN_MOTION    = 15.22604992
ECCENTRICITY   = .0020796
INCLINATION    = 96.6372
RA_OF_ASC_NODE = 124.8155
ARG_OF_PERICENTER = 197.4829
MEAN_ANOMALY   = 162.5696

EPHEMERIS_TYPE = 0
CLASSIFICATION_TYPE = U
NORAD_CAT_ID   = 67679
ELEMENT_SET_NO = 999
REV_AT_EPOCH   = 151
BSTAR          = .5957E-3
MEAN_MOTION_DOT = .13881E-3
MEAN_MOTION_DDOT = 0

CCSDS_OMM_VERS = 2.0
CREATION_DATE  = 
ORIGINATOR     = 

OBJECT_NAME    = 2026-023G
OBJECT_ID      = 2026-023G
CENTER_NAME    = EARTH
REF_FRAME      = TEME
TIME_SYSTEM    = UTC
MEAN_ELEMENT_THEORY = SGP/SGP4

EPOCH          = 2026-02-15T23:13:11.792640
MEAN_MOTION    = 15.22580414
ECCENTRICITY   = .0022429
INCLINATION    = 96.6299
RA_OF_ASC_NODE = 124.9300
ARG_OF_PERICENTER = 193.4491
MEAN_ANOMALY   = 166.6153

EPHEMERIS_TYPE = 0
CLASSIFICATION_TYPE = U
NORAD_CAT_ID   = 67680
ELEMENT_SET_NO = 999
REV_AT_EPOCH   = 153
BSTAR          = .65685E-3
MEAN_MOTION_DOT = .15318E-3
MEAN_MOTION_DDOT = 0

CCSDS_OMM_VERS = 2.0
CREATION_DATE  = 
ORIGINATOR     = 

OBJECT_NAME    = 2026-023H
OBJECT_ID      = 2026-023H
CENTER_NAME    = EARTH
REF_FRAME      = TEME
TIME_SYSTEM    = UTC
MEAN_ELEMENT_THEORY = SGP/SGP4

EPOCH          = 2026-02-15T20:03:38.575296
MEAN_MOTION    = 15.22579253
ECCENTRICITY   = .0022457
INCLINATION    = 96.6442
RA_OF_ASC_NODE = 124.8124
ARG_OF_PERICENTER = 193.4246
MEAN_ANOMALY   = 166.6398

EPHEMERIS_TYPE = 0
CLASSIFICATION_TYPE = U
NORAD_CAT_ID   = 67681
ELEMENT_SET_NO = 999
REV_AT_EPOCH   = 151
BSTAR          = .46915E-4
MEAN_MOTION_DOT = .1038E-4
MEAN_MOTION_DDOT = 0

CCSDS_OMM_VERS = 2.0
CREATION_DATE  = 
ORIGINATOR     = 

OBJECT_NAME    = 2026-023J
OBJECT_ID      = 2026-023J
CENTER_NAME    = EARTH
REF_FRAME      = TEME
TIME_SYSTEM    = UTC
MEAN_ELEMENT_THEORY = SGP/SGP4

EPOCH          = 2026-02-15T20:03:18.598752
MEAN_MOTION    = 15.22643486
ECCENTRICITY   = .0022583
INCLINATION    = 96.6401
RA_OF_ASC_NODE = 124.8266
ARG_OF_PERICENTER = 190.1047
MEAN_ANOMALY   = 169.9740

EPHEMERIS_TYPE = 0
CLASSIFICATION_TYPE = U
NORAD_CAT_ID   = 67682
ELEMENT_SET_NO = 999
REV_AT_EPOCH   = 151
BSTAR          = .61996E-3
MEAN_MOTION_DOT = .14481E-3
MEAN_MOTION_DDOT = 0

CCSDS_OMM_VERS = 2.0
CREATION_DATE  = 
ORIGINATOR     = 

OBJECT_NAME    = ISS OBJECT XZ
OBJECT_ID      = 1998-067XZ
CENTER_NAME    = EARTH
REF_FRAME      = TEME
TIME_SYSTEM    = UTC
MEAN_ELEMENT_THEORY = SGP/SGP4

EPOCH          = 2026-02-15T13:28:26.590368
MEAN_MOTION    = 15.50024026
ECCENTRICITY   = .0010523
INCLINATION    = 51.6309
RA_OF_ASC_NODE = 181.6425
ARG_OF_PERICENTER = 114.1379
MEAN_ANOMALY   = 246.0711

EPHEMERIS_TYPE = 0
CLASSIFICATION_TYPE = U
NORAD_CAT_ID   = 67683
ELEMENT_SET_NO = 999
REV_AT_EPOCH   = 135
BSTAR          = .73306E-3
MEAN_MOTION_DOT = .41718E-3
MEAN_MOTION_DDOT = 0

CCSDS_OMM_VERS = 2.0
CREATION_DATE  = 
ORIGINATOR     = 

OBJECT_NAME    = GXIBA-1
OBJECT_ID      = 1998-067YA
CENTER_NAME    = EARTH
REF_FRAME      = TEME
TIME_SYSTEM    = UTC
MEAN_ELEMENT_THEORY = SGP/SGP4

EPOCH          = 2026-02-15T14:55:30.448416
MEAN_MOTION    = 15.50928895
ECCENTRICITY   = .0012194
INCLINATION    = 51.6308
RA_OF_ASC_NODE = 181.2974
ARG_OF_PERICENTER = 107.9259
MEAN_ANOMALY   = 252.3061

EPHEMERIS_TYPE = 0
CLASSIFICATION_TYPE = U
NORAD_CAT_ID   = 67684
ELEMENT_SET_NO = 999
REV_AT_EPOCH   = 136
BSTAR          = .13427E-2
MEAN_MOTION_DOT = .7976E-3
MEAN_MOTION_DDOT = 0

CCSDS_OMM_VERS = 2.0
CREATION_DATE  = 
ORIGINATOR     = 

OBJECT_NAME    = CORAL
OBJECT_ID      = 1998-067YB
CENTER_NAME    = EARTH
REF_FRAME      = TEME
TIME_SYSTEM    = UTC
MEAN_ELEMENT_THEORY = SGP/SGP4

EPOCH          = 2026-02-15T15:00:08.432640
MEAN_MOTION    = 15.50186898
ECCENTRICITY   = .0012423
INCLINATION    = 51.6310
RA_OF_ASC_NODE = 181.3183
ARG_OF_PERICENTER = 109.8045
MEAN_ANOMALY   = 250.4285

EPHEMERIS_TYPE = 0
CLASSIFICATION_TYPE = U
NORAD_CAT_ID   = 67685
ELEMENT_SET_NO = 999
REV_AT_EPOCH   = 136
BSTAR          = .8552E-3
MEAN_MOTION_DOT = .49118E-3
MEAN_MOTION_DDOT = 0

CCSDS_OMM_VERS = 2.0
CREATION_DATE  = 
ORIGINATOR     = 

OBJECT_NAME    = ISS OBJECT YC
OBJECT_ID      = 1998-067YC
CENTER_NAME    = EARTH
REF_FRAME      = TEME
TIME_SYSTEM    = UTC
MEAN_ELEMENT_THEORY = SGP/SGP4

EPOCH          = 2026-02-15T14:59:07.360800
MEAN_MOTION    = 15.50363594
ECCENTRICITY   = .0007784
INCLINATION    = 51.6313
RA_OF_ASC_NODE = 181.3144
ARG_OF_PERICENTER = 83.9210
MEAN_ANOMALY   = 276.2666

EPHEMERIS_TYPE = 0
CLASSIFICATION_TYPE = U
NORAD_CAT_ID   = 67686
ELEMENT_SET_NO = 999
REV_AT_EPOCH   = 136
BSTAR          = .97002E-3
MEAN_MOTION_DOT = .56075E-3
MEAN_MOTION_DDOT = 0

CCSDS_OMM_VERS = 2.0
CREATION_DATE  = 
ORIGINATOR     = 

OBJECT_NAME    = LEOPARD
OBJECT_ID      = 1998-067YD
CENTER_NAME    = EARTH
REF_FRAME      = TEME
TIME_SYSTEM    = UTC
MEAN_ELEMENT_THEORY = SGP/SGP4

EPOCH          = 2026-02-15T13:27:46.626912
MEAN_MOTION    = 15.50114031
ECCENTRICITY   = .0007861
INCLINATION    = 51.6313
RA_OF_ASC_NODE = 181.6402
ARG_OF_PERICENTER = 86.0816
MEAN_ANOMALY   = 274.1071

EPHEMERIS_TYPE = 0
CLASSIFICATION_TYPE = U
NORAD_CAT_ID   = 67687
ELEMENT_SET_NO = 999
REV_AT_EPOCH   = 127
BSTAR          = .7788E-3
MEAN_MOTION_DOT = .44466E-3
MEAN_MOTION_DDOT = 0

CCSDS_OMM_VERS = 2.0
CREATION_DATE  = 
ORIGINATOR     = 

OBJECT_NAME    = ISS OBJECT YE
OBJECT_ID      = 1998-067YE
CENTER_NAME    = EARTH
REF_FRAME      = TEME
TIME_SYSTEM    = UTC
MEAN_ELEMENT_THEORY = SGP/SGP4

EPOCH          = 2026-02-15T14:59:29.505984
MEAN_MOTION    = 15.50286221
ECCENTRICITY   = .0007759
INCLINATION    = 51.6316
RA_OF_ASC_NODE = 181.3167
ARG_OF_PERICENTER = 84.5010
MEAN_ANOMALY   = 275.6864

EPHEMERIS_TYPE = 0
CLASSIFICATION_TYPE = U
NORAD_CAT_ID   = 67688
ELEMENT_SET_NO = 999
REV_AT_EPOCH   = 128
BSTAR          = .90932E-3
MEAN_MOTION_DOT = .52367E-3
MEAN_MOTION_DDOT = 0

