2026-023D               
1 67677U 26023D   26046.83729647  .00013073  00000+0  56562-3 0  9990
2 67677  96.6471 122.3160 0019012 203.3625 156.6751 15.22373463  1522
2026-023E               
1 67678U 26023E   26046.83674000  .00015504  00000+0  66810-3 0  9991
2 67678  96.6365 122.3187 0018854 202.7412 157.2994 15.22479233  1522
2026-023F               
1 67679U 26023F   26046.83581263  .00013881  00000+0  59570-3 0  9991
2 67679  96.6372 124.8155 0020796 197.4829 162.5696 15.22604992  1512
2026-023G               
1 67680U 26023G   26046.96749760  .00015318  00000+0  65685-3 0  9996
2 67680  96.6299 124.9300 0022429 193.4491 166.6153 15.22580414  1538
2026-023H               
1 67681U 26023H   26046.83586314  .00001038  00000+0  46915-4 0  9997
2 67681  96.6442 124.8124 0022457 193.4246 166.6398 15.22579253  1519
2026-023J               
1 67682U 26023J   26046.83563193  .00014481  00000+0  61996-3 0  9999
2 67682  96.6401 124.8266 0022583 190.1047 169.9740 15.22643486  1512
ISS OBJECT XZ           
1 67683U 98067XZ  26046.56141887  .00041718  00000+0  73306-3 0  9990
2 67683  51.6309 181.6425 0010523 114.1379 246.0711 15.50024026  1355
GXIBA-1                 
1 67684U 98067YA  26046.62188019  .00079760  00000+0  13427-2 0  9991
2 67684  51.6308 181.2974 0012194 107.9259 252.3061 15.50928895  1369
CORAL                   
1 67685U 98067YB  26046.62509760  .00049118  00000+0  85520-3 0  9990
2 67685  51.6310 181.3183 0012423 109.8045 250.4285 15.50186898  1361
ISS OBJECT YC           
1 67686U 98067YC  26046.62439075  .00056075  00000+0  97002-3 0  9990
2 67686  51.6313 181.3144 0007784  83.9210 276.2666 15.50363594  1361
LEOPARD                 
1 67687U 98067YD  26046.56095633  .00044466  00000+0  77880-3 0  9995
2 67687  51.6313 181.6402 0007861  86.0816 274.1071 15.50114031  1271
ISS OBJECT YE           
1 67688U 98067YE  26046.62464706  .00052367  00000+0  90932-3 0  9996
2 67688  51.6316 181.3167 0007759  84.5010 275.6864 15.50286221  1283
